ISS (ZARYA)             
1 25544U 98067A   26188.50835634  .00005806  00000+0  11369-3 0  9990
2 25544  51.6304 199.5144 0006687 267.6545  92.3678 15.48933372574901
